{
  "type": "FeatureCollection",
  "features": [
    {
      "type": "Feature",
      "properties": {
        "norad_id": 29954,
        "name": "FENGYUN 1C DEB",
        "group": "fengyun-1c-debris",
        "lat": -58.698485224065344,
        "lon": 179.6291895484957,
        "alt_km": 749.4848387068814,
        "timestamp": "2025-12-05T20:43:02.327975+00:00",
        "meta_object_name": "FENGYUN 1C DEB",
        "meta_object_id": "1999-025KC",
        "meta_epoch": "2025-12-05T01:10:35.249376",
        "meta_mean_motion": 14.34176505,
        "meta_eccentricity": 0.00741641,
        "meta_inclination": 100.151,
        "meta_ra_of_asc_node": 15.8113,
        "meta_arg_of_pericenter": 291.0532,
        "meta_mean_anomaly": 68.2728,
        "meta_ephemeris_type": 0,
        "meta_classification_type": "U",
        "meta_norad_cat_id": 29954,
        "meta_element_set_no": 999,
        "meta_rev_at_epoch": 98077,
        "meta_bstar": 0.0019346244,
        "meta_mean_motion_dot": 5.537e-05,
        "meta_mean_motion_ddot": 0,
        "tle_line1": "1 29954U 99025KC  25339.04901909  .00005537  00000+0  19346-2 0  9992",
        "tle_line2": "2 29954 100.1510  15.8113 0074164 291.0532  68.2728 14.34176505980772"
      },
      "geometry": {
        "type": "Point",
        "coordinates": [
          179.6291895484957,
          -58.698485224065344
        ]
      }
    },
    {
      "type": "Feature",
      "properties": {
        "norad_id": 29955,
        "name": "FENGYUN 1C DEB",
        "group": "fengyun-1c-debris",
        "lat": -54.28290381371681,
        "lon": -133.14866950235404,
        "alt_km": 767.3057801658579,
        "timestamp": "2025-12-05T20:43:02.327985+00:00",
        "meta_object_name": "FENGYUN 1C DEB",
        "meta_object_id": "1999-025KD",
        "meta_epoch": "2025-12-05T04:51:07.766208",
        "meta_mean_motion": 14.38135414,
        "meta_eccentricity": 0.00071303,
        "meta_inclination": 99.2751,
        "meta_ra_of_asc_node": 59.2748,
        "meta_arg_of_pericenter": 269.937,
        "meta_mean_anomaly": 144.8644,
        "meta_ephemeris_type": 0,
        "meta_classification_type": "U",
        "meta_norad_cat_id": 29955,
        "meta_element_set_no": 999,
        "meta_rev_at_epoch": 97953,
        "meta_bstar": 0.0031160292,
        "meta_mean_motion_dot": 9.416e-05,
        "meta_mean_motion_ddot": 0,
        "tle_line1": "1 29955U 99025KD  25339.20217322  .00009416  00000+0  31160-2 0  9998",
        "tle_line2": "2 29955  99.2751  59.2748 0007130 269.9370 144.8644 14.38135414979535"
      },
      "geometry": {
        "type": "Point",
        "coordinates": [
          -133.14866950235404,
          -54.28290381371681
        ]
      }
    },
    {
      "type": "Feature",
      "properties": {
        "norad_id": 29956,
        "name": "FENGYUN 1C DEB",
        "group": "fengyun-1c-debris",
        "lat": 10.4502856752566,
        "lon": 7.281767177014931,
        "alt_km": 838.6883008172708,
        "timestamp": "2025-12-05T20:43:02.327996+00:00",
        "meta_object_name": "FENGYUN 1C DEB",
        "meta_object_id": "1999-025KE",
        "meta_epoch": "2025-12-05T02:10:11.447328",
        "meta_mean_motion": 14.06168921,
        "meta_eccentricity": 0.00540374,
        "meta_inclination": 98.7925,
        "meta_ra_of_asc_node": 8.1672,
        "meta_arg_of_pericenter": 38.8754,
        "meta_mean_anomaly": 22.1235,
        "meta_ephemeris_type": 0,
        "meta_classification_type": "U",
        "meta_norad_cat_id": 29956,
        "meta_element_set_no": 999,
        "meta_rev_at_epoch": 96942,
        "meta_bstar": 0.00021964554,
        "meta_mean_motion_dot": 3.23e-06,
        "meta_mean_motion_ddot": 0,
        "tle_line1": "1 29956U 99025KE  25339.09041027  .00000323  00000+0  21965-3 0  9994",
        "tle_line2": "2 29956  98.7925   8.1672 0054037  38.8754  22.1235 14.06168921969424"
      },
      "geometry": {
        "type": "Point",
        "coordinates": [
          7.281767177014931,
          10.4502856752566
        ]
      }
    },
    {
      "type": "Feature",
      "properties": {
        "norad_id": 29957,
        "name": "FENGYUN 1C DEB",
        "group": "fengyun-1c-debris",
        "lat": 37.000682443408984,
        "lon": 99.62247663586258,
        "alt_km": 746.2834654746457,
        "timestamp": "2025-12-05T20:43:02.328006+00:00",
        "meta_object_name": "FENGYUN 1C DEB",
        "meta_object_id": "1999-025KF",
        "meta_epoch": "2025-12-05T07:36:42.300864",
        "meta_mean_motion": 14.5068151,
        "meta_eccentricity": 0.00384872,
        "meta_inclination": 98.9224,
        "meta_ra_of_asc_node": 105.8429,
        "meta_arg_of_pericenter": 199.2159,
        "meta_mean_anomaly": 228.3612,
        "meta_ephemeris_type": 0,
        "meta_classification_type": "U",
        "meta_norad_cat_id": 29957,
        "meta_element_set_no": 999,
        "meta_rev_at_epoch": 97384,
        "meta_bstar": 0.0089655004,
        "meta_mean_motion_dot": 0.00035694,
        "meta_mean_motion_ddot": 0,
        "tle_line1": "1 29957U 99025KF  25339.31715626  .00035694  00000+0  89655-2 0  9991",
        "tle_line2": "2 29957  98.9224 105.8429 0038487 199.2159 228.3612 14.50681510973849"
      },
      "geometry": {
        "type": "Point",
        "coordinates": [
          99.62247663586258,
          37.000682443408984
        ]
      }
    },
    {
      "type": "Feature",
      "properties": {
        "norad_id": 29958,
        "name": "FENGYUN 1C DEB",
        "group": "fengyun-1c-debris",
        "lat": 45.945684764354716,
        "lon": -176.49568990140634,
        "alt_km": 870.4902149301997,
        "timestamp": "2025-12-05T20:43:02.328016+00:00",
        "meta_object_name": "FENGYUN 1C DEB",
        "meta_object_id": "1999-025KG",
        "meta_epoch": "2025-12-04T23:43:05.256192",
        "meta_mean_motion": 14.14441361,
        "meta_eccentricity": 0.00547469,
        "meta_inclination": 98.6688,
        "meta_ra_of_asc_node": 353.5827,
        "meta_arg_of_pericenter": 355.5214,
        "meta_mean_anomaly": 4.5463,
        "meta_ephemeris_type": 0,
        "meta_classification_type": "U",
        "meta_norad_cat_id": 29958,
        "meta_element_set_no": 999,
        "meta_rev_at_epoch": 97341,
        "meta_bstar": 0.00060141716,
        "meta_mean_motion_dot": 1.126e-05,
        "meta_mean_motion_ddot": 0,
        "tle_line1": "1 29958U 99025KG  25338.98825528  .00001126  00000+0  60142-3 0  9991",
        "tle_line2": "2 29958  98.6688 353.5827 0054746 355.5214   4.5463 14.14441361973419"
      },
      "geometry": {
        "type": "Point",
        "coordinates": [
          -176.49568990140634,
          45.945684764354716
        ]
      }
    },
    {
      "type": "Feature",
      "properties": {
        "norad_id": 29959,
        "name": "FENGYUN 1C DEB",
        "group": "fengyun-1c-debris",
        "lat": -41.481455702716865,
        "lon": 18.595858076352002,
        "alt_km": 853.0470341228829,
        "timestamp": "2025-12-05T20:43:02.328026+00:00",
        "meta_object_name": "FENGYUN 1C DEB",
        "meta_object_id": "1999-025KH",
        "meta_epoch": "2025-12-05T02:27:01.313856",
        "meta_mean_motion": 14.06009609,
        "meta_eccentricity": 0.00419645,
        "meta_inclination": 98.809,
        "meta_ra_of_asc_node": 9.9755,
        "meta_arg_of_pericenter": 349.608,
        "meta_mean_anomaly": 78.24,
        "meta_ephemeris_type": 0,
        "meta_classification_type": "U",
        "meta_norad_cat_id": 29959,
        "meta_element_set_no": 999,
        "meta_rev_at_epoch": 96833,
        "meta_bstar": 0.00038078522,
        "meta_mean_motion_dot": 5.86e-06,
        "meta_mean_motion_ddot": 0,
        "tle_line1": "1 29959U 99025KH  25339.10209854  .00000586  00000+0  38079-3 0  9998",
        "tle_line2": "2 29959  98.8090   9.9755 0041964 349.6080  78.2400 14.06009609968334"
      },
      "geometry": {
        "type": "Point",
        "coordinates": [
          18.595858076352002,
          -41.481455702716865
        ]
      }
    },
    {
      "type": "Feature",
      "properties": {
        "norad_id": 29960,
        "name": "FENGYUN 1C DEB",
        "group": "fengyun-1c-debris",
        "lat": 42.56117024819353,
        "lon": 153.6559793037758,
        "alt_km": 898.804764764116,
        "timestamp": "2025-12-05T20:43:02.328036+00:00",
        "meta_object_name": "FENGYUN 1C DEB",
        "meta_object_id": "1999-025KJ",
        "meta_epoch": "2025-12-04T19:12:32.254848",
        "meta_mean_motion": 14.16378198,
        "meta_eccentricity": 0.0091251,
        "meta_inclination": 98.6137,
        "meta_ra_of_asc_node": 324.6264,
        "meta_arg_of_pericenter": 309.3019,
        "meta_mean_anomaly": 171.2693,
        "meta_ephemeris_type": 0,
        "meta_classification_type": "U",
        "meta_norad_cat_id": 29960,
        "meta_element_set_no": 999,
        "meta_rev_at_epoch": 97342,
        "meta_bstar": 0.00086506095,
        "meta_mean_motion_dot": 1.746e-05,
        "meta_mean_motion_ddot": 0,
        "tle_line1": "1 29960U 99025KJ  25338.80037332  .00001746  00000+0  86506-3 0  9993",
        "tle_line2": "2 29960  98.6137 324.6264 0091251 309.3019 171.2693 14.16378198973424"
      },
      "geometry": {
        "type": "Point",
        "coordinates": [
          153.6559793037758,
          42.56117024819353
        ]
      }
    }
  ]
}